COSMOS 2084             
1 20663U 90055A   26157.37190060  .00002460  00000+0  18125-3 0  9994
2 20663  62.7909  33.0039 0005571 259.1304 100.9169 15.06072304949671
SL-6 R/B(2)             
1 20666U 90055D   26157.67719436  .00002099  00000+0  16353-3 0  9993
2 20666  62.7841 311.1397 0038977   3.6864 356.4514 15.03968302951578
SL-8 R/B                
1 20775U 90078B   26157.53258888  .00019142  00000+0  53935-3 0  9997
2 20775  82.9017 171.2678 0352993  74.3044 289.6817 14.91925991822536
SL-8 R/B                
1 21088U 91006B   26157.62626434  .00000054  00000+0  39051-4 0  9999
2 21088  82.9418 103.8898 0023195 142.8174  30.0577 13.77505131776316
OKEAN-3                 
1 21397U 91039A   26157.63579232  .00002409  00000+0  16621-3 0  9995
2 21397  82.5166 250.6130 0014692  34.1296 326.0872 15.05281228878416
COSMOS 2151             
1 21422U 91042A   26157.85621040  .00001480  00000+0  11543-3 0  9993
2 21422  82.4963 357.6520 0013686 115.0054 245.2594 15.00409157876568
SL-14 R/B               
1 21423U 91042B   26157.68693910  .00000436  00000+0  52093-4 0  9996
2 21423  82.4921 136.7425 0015796 312.5513  47.4366 14.81895807866254
ERS-1                   
1 21574U 91050A   26157.80817770  .00000249  00000+0  94270-4 0  9993
2 21574  98.7800 178.2525 0030818 298.9835  60.8264 14.39510492828559
ARIANE 40 R/B           
1 21610U 91050F   26157.64760312  .00000305  00000+0  10350-3 0  9994
2 21610  98.1879 206.4744 0003771 144.6128 215.5314 14.42950877831825
INTERCOSMOS 25          
1 21819U 91086A   26157.54743627  .00000773  00000+0  15383-3 0  9993
2 21819  82.6057 256.2481 1484428 285.3665  58.8577 12.12183565507450
SL-8 R/B                
1 21876U 92008B   26157.66618826  .00000054  00000+0  39875-4 0  9991
2 21876  82.9269 201.6098 0033314 245.0382 233.2779 13.75974083721657
SL-8 R/B                
1 21938U 92020B   26157.60249632  .00000072  00000+0  58173-4 0  9995
2 21938  82.9303  87.7189 0030291  51.2399 123.1741 13.75547874713353
USA 81                  
1 21949U 92023A   26157.51697703  .00000200  00000+0  66646-4 0  9993
2 21949  85.0077  80.1652 0002731  94.5024 265.6480 14.32395314107502
